DMC3-FM3                
1 40717U 15032C   25334.89072122  .00000712  00000+0  88671-4 0  9991
2 40717  97.6813 205.5748 0005541   8.6511 351.4799 14.85402154560476
