{
  "type": "FeatureCollection",
  "features": [
    {
      "type": "Feature",
      "properties": {
        "norad_id": 40717,
        "name": "DMC3-FM3",
        "group": "dmc",
        "lat": NaN,
        "lon": NaN,
        "alt_km": NaN,
        "timestamp": "2025-12-01T03:03:40.654801+00:00",
        "meta": {
          "OBJECT_NAME": "DMC3-FM3",
          "OBJECT_ID": "2015-032C",
          "EPOCH": "2025-11-30T21:22:38.313408",
          "MEAN_MOTION": 14.85402154,
          "ECCENTRICITY": 0.0005541,
          "INCLINATION": 97.6813,
          "RA_OF_ASC_NODE": 205.5748,
          "ARG_OF_PERICENTER": 8.6511,
          "MEAN_ANOMALY": 351.4799,
          "EPHEMERIS_TYPE": 0,
          "CLASSIFICATION_TYPE": "U",
          "NORAD_CAT_ID": 40717,
          "ELEMENT_SET_NO": 999,
          "REV_AT_EPOCH": 56047,
          "BSTAR": 8.8671e-05,
          "MEAN_MOTION_DOT": 7.12e-06,
          "MEAN_MOTION_DDOT": 0
        }
      },
      "geometry": {
        "type": "Point",
        "coordinates": [
          NaN,
          NaN
        ]
      }
    }
  ]
}